STARLINK-1912
1 47178U 20088BJ  26090.83335647  .00118814  00000+0  13856-2 0  9998
2 47178  53.0495 173.8715 0005257 290.5573  26.7473 15.60782252  5863
